[{"OBJECT_NAME":"ONEWEB-0358","OBJECT_ID":"2021-090F","EPOCH":"2026-03-09T15:15:49.415904","MEAN_MOTION":13.20771163,"ECCENTRICITY":0.0001562,"INCLINATION":87.9169,"RA_OF_ASC_NODE":294.3141,"ARG_OF_PERICENTER":82.8531,"MEAN_ANOMALY":277.278,"EPHEMERIS_TYPE":0,"CLASSIFICATION_TYPE":"U","NORAD_CAT_ID":49284,"ELEMENT_SET_NO":999,"REV_AT_EPOCH":21741,"BSTAR":-0.00047341,"MEAN_MOTION_DOT":-1.79e-6,"MEAN_MOTION_DDOT":0},{"OBJECT_NAME":"COSMOS 970 DEB","OBJECT_ID":"1977-121AV","EPOCH":"2026-03-09T20:25:10.883424","MEAN_MOTION":13.36988012,"ECCENTRICITY":0.00909266,"INCLINATION":65.9456,"RA_OF_ASC_NODE":255.9116,"ARG_OF_PERICENTER":235.5876,"MEAN_ANOMALY":233.1039,"EPHEMERIS_TYPE":0,"CLASSIFICATION_TYPE":"U","NORAD_CAT_ID":12867,"ELEMENT_SET_NO":999,"REV_AT_EPOCH":27307,"BSTAR":0.0004417078,"MEAN_MOTION_DOT":1.63e-6,"MEAN_MOTION_DDOT":0}]
